#dP2024 12  2  0  0  0.00000000      97 __u+U IGS20 FIT  IAC
## 2343  86400.00000000   900.00000000 60646 0.0000000000000
+  117   C06C07C08C09C11C12C13C14C16C19C20C21C22C23C24C25C26
+        C27C28C29C30C32C33C34C35C36C37C38C39C40C41C42C43C44
+        C45E02E03E04E05E06E07E08E09E10E11E12E13E14E15E18E19
+        E21E24E25E26E27E29E30E31E33E34E36G02G03G04G05G06G07
+        G08G09G10G11G12G13G14G15G16G17G18G19G20G21G22G23G24
+        G25G26G27G28G29G30G31G32J02J03J04R01R02R03R04R05R07
+        R08R09R11R12R14R15R16R17R18R19R20R21R22R24R26  0  0
++         7 10  7  7  6  6  7  7  7  6  5  5  5  5  5  5  6
++         5  6  5  5  5  6  5  6  6  5  6  6  6  6  6  6  5
++         5  4  4  4  4  4  4  4  4  4  4  4  4  4  4  4  4
++         4  4  4  4  4  4  4  4  4  4  4  3  3  3  4  3  3
++         3  3  3  3  3  3  3  3  4  3  3  3  4  3  3  3  3
++         3  4  4  3  3  3  3  3 10 11 10  8  6  6  6  6  6
++         6  7  6  6  6  6  7  6  7  7  8  6  6  6  7  0  0
%c M  cc GPS ccc cccc cccc cccc cccc ccccc ccccc ccccc ccccc
%c cc cc ccc ccc cccc cccc cccc cccc ccccc ccccc ccccc ccccc
%f  1.2500000  1.025000000  0.00000000000  0.000000000000000
%f  0.0000000  0.000000000  0.00000000000  0.000000000000000
%i    0    0    0    0      0      0      0      0         0
%i    0    0    0    0      0      0      0      0         0
/* INFORMATION & ANALYSIS CENTER (IAC)            FINAL DATA
/* S/V CLOCKS ARE ALIGNED TO GNSS TIME                      
/* G:C1WC2W R:C1PC2P E:C1XC5X C:C2IC6I J:C1CC2S             
/* PCV:IGS20_2317 OL/AL:FES2004  NONE     YN ORB:CoN CLK:CoN
*  2024 12 02  8 15  0.00000000
PC06 -17794.062568  29158.974404  24605.522600    500.718758
PC07  -5738.535846  40255.226978  11733.278933   -156.736976
PC08  -1885.922681  21507.164135 -36187.935979   -864.423880
PC09 -10056.489216  28140.481848  29979.606409   -718.306871
PC11  20344.815906  -6356.287403 -17931.832339    269.953754
PC12   9938.297145  12332.723645 -22927.830797   -240.940743
PC13   4057.142631  24740.260655 -33636.881447     83.325610
PC14  17483.601064   3960.652239  21406.082744   -494.670512
PC16 -20861.674473  28728.039638  22771.419673     57.231213
PC19 -14059.857560   6546.483906 -23181.378841   -970.847230
PC20 -18058.831884 -12142.987755 -17451.579402   -898.104137
PC21  11418.673867  25471.792613    403.173516   -911.298801
PC22  -1770.723258  22784.683796 -16036.484681    194.976746
PC23  10073.949669 -14606.502612 -21541.517890   -903.679136
PC24  25793.054724   7891.114372   7074.495866    746.149593
PC25  25386.878900  -5336.156377 -10272.453520    576.915511
PC26  11565.508230  15500.217238  20081.050229   -385.423991
PC27  -2707.467791 -19636.820319  19629.676812    404.147189
PC28  10969.348359 -24377.131044   8021.553298    315.083417
PC29 -20349.124901  14872.789560  11977.469724    369.920570
PC30 -16068.840341  -4537.255957  22352.379529     42.372323
PC32 -11531.007418 -25405.785184   -248.777590   -824.244789
PC33  14112.264428  -6511.064234  23175.373094   -948.507006
PC34  17062.215204   2666.529203 -21932.463851    576.745175
PC35 -10549.415242  24758.078157  -7324.593948    192.687643
PC36 -25337.772463   5014.463976  10599.400744    230.947808
PC37 -10946.873954 -15825.790167 -20220.832823   -894.785546
PC38  -9222.231908  20417.480052 -35663.609014    194.663184
PC39 -23944.017372  29479.545979  18064.507720    -10.476398
PC40 -10894.621273  38250.960157  14497.160744   -105.923769
PC41   2488.568825 -22199.738000  16766.281119   -886.691001
PC42  18041.992687  13931.020444  16154.841490   -528.687609
PC43  20515.448941 -14006.204502 -12742.575743     94.004371
PC44   3510.812495  19660.649824 -19490.134695    669.315129
PC45 -10767.892881  14243.818047  21440.502021   -179.044667
PE02  21625.002489    585.534128 -20202.111036    179.186275
PE03  17439.092769  -9741.946863  21830.896646   -157.232945
PE04 -10625.793645  26591.601791  -7489.938810    -96.669904
PE05  13847.041018  12444.629476  23008.686087   4806.758104
PE06  -4507.008355  29183.830950   1939.821019    -53.950366
PE07  -1927.515664 -27612.476146 -10482.606721   -155.963865
PE08  11001.152375 -26221.916835   8199.941214   -377.285413
PE09   1792.432795  27637.158480  10455.418381   -684.845926
PE10  -8077.862753  17778.409276 -22244.009292   -673.720344
PE11   3957.438902  15613.544645 -24834.336348    479.192554
PE12 -17342.606563  17162.697919 -16743.936704  -1321.717576
PE13  -3267.871610 -15747.314632  24861.460647    -27.452544
PE14  18338.174565   5249.279859 -22220.562369    431.152242
PE15  18018.484055 -16985.131407  16234.546846   -142.541999
PE18 -17514.922850  15205.355069  16758.768110    837.874605
PE19 -17468.479881   7677.849527 -22626.691138   1022.307901
PE21 -23969.671286 -16622.883445   5049.048598   -631.703574
PE24  12069.026651  23386.568159  13506.145794  -1132.049041
PE25  23845.078197  16908.977412  -4620.749377     11.837963
PE26 -22602.495470  -5130.026021  18427.171274   -195.017126
PE27 -12199.801980 -23353.864564 -13505.122574   -519.074398
PE29 -14132.698490 -12118.040879 -23024.763094    -50.329746
PE30   6583.126433 -16332.796023 -23807.987735   -985.917583
PE31  -6628.926447  16216.829161  23860.689310    -45.080313
PE33 -28433.579849   7940.683517   2234.176433     16.281047
PE34  28358.697433  -8269.082310  -1795.654963   -149.303829
PE36  22215.480313   5349.186919 -18807.504547   -319.184473
PG02  -5213.989809  17413.227092 -18762.029958   -301.473183
PG03   7379.637255  19491.976298 -16692.301123    614.701824
PG04     19.383628  25820.530269   5887.915312    489.139658
PG05   7924.723949 -12549.316927  21849.534894   -194.764807
PG06  25027.121140  -4615.912359  -7739.624195    -12.793813
PG07  12350.094202  11274.088978  21252.774872    -17.201263
PG08  -6294.843187  24848.910021   5860.268785    428.465472
PG09   7466.161139  21480.053055  13572.359159    469.346087
PG10 -22913.097284  -8874.955239 -10284.293188   -218.110218
PG11  22792.474958 -12452.630188   5434.290001   -751.957572
PG12  -2132.139302 -19085.315305 -18656.444418   -555.788419
PG13  13429.719943 -19532.853220  11501.391270    688.376008
PG14  22944.390900  11691.031830  -6941.993775    551.822471
PG15   2667.632708 -25782.860022   4901.486601    234.664139
PG16 -13709.342834   7556.245656  21163.395541   -113.665028
PG17  13793.501744   6455.305119 -21325.671636    536.000114
PG18 -14345.226577  -9212.226428  20457.327952   -660.584862
PG19  15845.596654  -4258.730304 -20935.274805    569.366619
PG20  18233.671170  -5464.771883  18546.650055    368.241705
PG21 -11009.206417  17939.028176 -15107.652464     96.022083
PG22  21336.255540   6154.267445 -13945.047811    -83.589200
PG23 -20414.933961 -16946.380736   2905.028677    375.158450
PG24   6392.529995 -18712.458095 -18010.345825   -476.565153
PG25 -15316.388895 -19720.525209  -9786.973162    498.522855
PG26 -21660.546632      2.729888  15444.838473      6.036882
PG27 -12473.040867  17624.079512  14872.016237    -34.475999
PG28 -24417.531798   3736.515438  -9783.849209   -496.324449
PG29  -5143.258946 -22111.268142  13644.390374   -559.263984
PG30  21888.160884   2790.046385  15123.514652   -269.979558
PG31 -24807.715012  10029.103413    194.539310   -220.738306
PG32 -14865.339400  -2486.876669 -21652.041695   -565.383363
PJ02 -26427.276491  22392.973219  29253.182675      0.202464
PJ03 -34985.788729  21647.915946  -4308.103553     -8.047491
PJ04 -19780.784671  27677.371315 -19955.617573     21.502535
PR01  11373.864818  18940.226339  12754.025641    106.346050
PR02  11439.194617   2980.709413  22636.211329    -39.313698
PR03   5736.454506 -15357.713103  19611.936472    112.454883
PR04  -2726.640422 -24636.712888   6100.185432    266.626165
PR05  -9765.424761 -21005.214536 -10708.507291    141.571691
PR07  -5553.577879  15617.173792 -19327.808179     96.118746
PR08   3118.438591  24629.127862  -5705.344888     -6.188671
PR09 -24556.371264  -3338.930016   5874.409660    223.847856
PR11    816.327992  11477.413888  22773.234676      5.663275
PR12  19416.577089  11559.790439  11838.758608     47.909409
PR14  15343.797072  -5585.053176 -19597.030287     27.333882
PR15  -2637.243878 -11975.378091 -22352.944867     73.543004
PR16 -19355.860134 -11453.675144 -11997.772482     31.282937
PR17  18373.491490 -17647.939527    699.281804    144.943452
PR18   8904.809736 -17897.122860  15896.858097    174.716516
PR19  -3409.935966 -10625.844580  22944.228961   -300.474574
PR20 -18419.335080   5917.187367  16620.053357   -122.659928
PR21 -18920.154666  17126.611087    428.553417   -156.127330
PR22  -8098.030671  17551.608096 -16606.733294    -28.280298
PR24  18523.306078  -6985.548700 -16049.617526    -82.424328
PR26   2317.331697  24264.056567  -7528.069168   -133.112589
EOF
